{"type": "FeatureCollection", "features": [ {"type": "Feature", "properties": {"norad_id": 31931, "name": "FENGYUN 1C DEB", "group": "fengyun-1c-debris", "lat": 3.483509464582514, "lon": 116.84255844565357, "alt_km": 1122.2408201683575, "timestamp": "2025-12-11T15:53:39.827563+00:00", "meta": {"OBJECT_NAME": "FENGYUN 1C DEB", "OBJECT_ID": "1999-025CMG", "EPOCH": "2025-12-08T02:54:38.657664", "MEAN_MOTION": 13.42606691, "ECCENTRICITY": 0.04234013, "INCLINATION": 97.8131, "RA_OF_ASC_NODE": 293.6089, "ARG_OF_PERICENTER": 281.6721, "MEAN_ANOMALY": 73.7205, "EPHEMERIS_TYPE": 0, "CLASSIFICATION_TYPE": "U", "NORAD_CAT_ID": 31931, "ELEMENT_SET_NO": 999, "REV_AT_EPOCH": 65160, "BSTAR": 0.0018287919, "MEAN_MOTION_DOT": 1.733e-05, "MEAN_MOTION_DDOT": 0}, "tle": {"line1": "1 31931U 99025CMG 25342.12128076  .00001733  00000+0  18288-2 0  9997", "line2": "2 31931  97.8131 293.6089 0423401 281.6721  73.7205 13.42606691651606"}}, "geometry": {"type": "Point", "coordinates": [116.84255844565357, 3.483509464582514]}}, {"type": "Feature", "properties": {"norad_id": 31934, "name": "FENGYUN 1C DEB", "group": "fengyun-1c-debris", "lat": -10.152070035687057, "lon": -146.77119877768976, "alt_km": 531.2127639843529, "timestamp": "2025-12-11T15:53:39.827573+00:00", "meta": {"OBJECT_NAME": "FENGYUN 1C DEB", "OBJECT_ID": "1999-025CMK", "EPOCH": "2025-12-04T09:16:56.352576", "MEAN_MOTION": 15.05606214, "ECCENTRICITY": 0.0038121, "INCLINATION": 98.8816, "RA_OF_ASC_NODE": 26.4564, "ARG_OF_PERICENTER": 260.5868, "MEAN_ANOMALY": 99.1044, "EPHEMERIS_TYPE": 0, "CLASSIFICATION_TYPE": "U", "NORAD_CAT_ID": 31934, "ELEMENT_SET_NO": 999, "REV_AT_EPOCH": 60717, "BSTAR": 0.0071095, "MEAN_MOTION_DOT": 0.00105581, "MEAN_MOTION_DDOT": 0}, "tle": {"line1": "1 31934U 99025CMK 25338.38676334  .00105581  00000+0  71095-2 0  9999", "line2": "2 31934  98.8816  26.4564 0038121 260.5868  99.1044 15.05606214607177"}}, "geometry": {"type": "Point", "coordinates": [-146.77119877768976, -10.152070035687057]}}, {"type": "Feature", "properties": {"norad_id": 31937, "name": "FENGYUN 1C DEB", "group": "fengyun-1c-debris", "lat": -18.282592979830987, "lon": 78.17954685599854, "alt_km": 552.9539573837501, "timestamp": "2025-12-11T15:53:39.827583+00:00", "meta": {"OBJECT_NAME": "FENGYUN 1C DEB", "OBJECT_ID": "1999-025CMN", "EPOCH": "2025-12-06T23:52:27.149088", "MEAN_MOTION": 14.78022374, "ECCENTRICITY": 0.0162921, "INCLINATION": 99.2561, "RA_OF_ASC_NODE": 69.7316, "ARG_OF_PERICENTER": 315.3928, "MEAN_ANOMALY": 43.4262, "EPHEMERIS_TYPE": 0, "CLASSIFICATION_TYPE": "U", "NORAD_CAT_ID": 31937, "ELEMENT_SET_NO": 999, "REV_AT_EPOCH": 65984, "BSTAR": 0.0011794166, "MEAN_MOTION_DOT": 0.00010567, "MEAN_MOTION_DDOT": 0}, "tle": {"line1": "1 31937U 99025CMN 25340.99475867  .00010567  00000+0  11794-2 0  9999", "line2": "2 31937  99.2561  69.7316 0162921 315.3928  43.4262 14.78022374659842"}}, "geometry": {"type": "Point", "coordinates": [78.17954685599854, -18.282592979830987]}}, {"type": "Feature", "properties": {"norad_id": 31938, "name": "FENGYUN 1C DEB", "group": "fengyun-1c-debris", "lat": -45.04370755797855, "lon": -172.11578852506003, "alt_km": 684.1916238748527, "timestamp": "2025-12-11T15:53:39.827595+00:00", "meta": {"OBJECT_NAME": "FENGYUN 1C DEB", "OBJECT_ID": "1999-025CMP", "EPOCH": "2025-12-10T19:37:50.744352", "MEAN_MOTION": 14.95574761, "ECCENTRICITY": 0.01528161, "INCLINATION": 98.9295, "RA_OF_ASC_NODE": 15.9828, "ARG_OF_PERICENTER": 72.3338, "MEAN_ANOMALY": 289.4498, "EPHEMERIS_TYPE": 0, "CLASSIFICATION_TYPE": "U", "NORAD_CAT_ID": 31938, "ELEMENT_SET_NO": 999, "REV_AT_EPOCH": 99107, "BSTAR": 0.00060388207, "MEAN_MOTION_DOT": 8.401e-05, "MEAN_MOTION_DDOT": 0}, "tle": {"line1": "1 31938U 99025CMP 25344.81794843  .00008401  00000+0  60388-3 0  9991", "line2": "2 31938  98.9295  15.9828 0152816  72.3338 289.4498 14.95574761991079"}}, "geometry": {"type": "Point", "coordinates": [-172.11578852506003, -45.04370755797855]}}, {"type": "Feature", "properties": {"norad_id": 31944, "name": "FENGYUN 1C DEB", "group": "fengyun-1c-debris", "lat": 57.402200247534964, "lon": 118.45151752916298, "alt_km": 777.9234120837846, "timestamp": "2025-12-11T15:53:39.827607+00:00", "meta": {"OBJECT_NAME": "FENGYUN 1C DEB", "OBJECT_ID": "1999-025CMV", "EPOCH": "2025-12-05T05:25:34.154400", "MEAN_MOTION": 14.11765981, "ECCENTRICITY": 0.01519652, "INCLINATION": 99.203, "RA_OF_ASC_NODE": 126.5353, "ARG_OF_PERICENTER": 25.3933, "MEAN_ANOMALY": 98.7212, "EPHEMERIS_TYPE": 0, "CLASSIFICATION_TYPE": "U", "NORAD_CAT_ID": 31944, "ELEMENT_SET_NO": 999, "REV_AT_EPOCH": 62804, "BSTAR": 0.00085144569, "MEAN_MOTION_DOT": 1.684e-05, "MEAN_MOTION_DDOT": 0}, "tle": {"line1": "1 31944U 99025CMV 25339.22608975  .00001684  00000+0  85145-3 0  9991", "line2": "2 31944  99.2030 126.5353 0151965  25.3933  98.7212 14.11765981628045"}}, "geometry": {"type": "Point", "coordinates": [118.45151752916298, 57.402200247534964]}}, {"type": "Feature", "properties": {"norad_id": 31945, "name": "FENGYUN 1C DEB", "group": "fengyun-1c-debris", "lat": 9.996265800671742, "lon": 60.39132910957508, "alt_km": 816.2616365377398, "timestamp": "2025-12-11T15:53:39.827618+00:00", "meta": {"OBJECT_NAME": "FENGYUN 1C DEB", "OBJECT_ID": "1999-025CMW", "EPOCH": "2025-12-11T04:00:57.710304", "MEAN_MOTION": 14.20785268, "ECCENTRICITY": 0.00609033, "INCLINATION": 98.9621, "RA_OF_ASC_NODE": 61.4835, "ARG_OF_PERICENTER": 291.7342, "MEAN_ANOMALY": 67.7359, "EPHEMERIS_TYPE": 0, "CLASSIFICATION_TYPE": "U", "NORAD_CAT_ID": 31945, "ELEMENT_SET_NO": 999, "REV_AT_EPOCH": 95173, "BSTAR": 0.0021389026, "MEAN_MOTION_DOT": 4.661e-05, "MEAN_MOTION_DDOT": 0}, "tle": {"line1": "1 31945U 99025CMW 25345.16733461  .00004661  00000+0  21389-2 0  9998", "line2": "2 31945  98.9621  61.4835 0060903 291.7342  67.7359 14.20785268951737"}}, "geometry": {"type": "Point", "coordinates": [60.39132910957508, 9.996265800671742]}}, {"type": "Feature", "properties": {"norad_id": 31946, "name": "FENGYUN 1C DEB", "group": "fengyun-1c-debris", "lat": -77.17666987420273, "lon": -177.5999442845949, "alt_km": 897.3562697105181, "timestamp": "2025-12-11T15:53:39.827628+00:00", "meta": {"OBJECT_NAME": "FENGYUN 1C DEB", "OBJECT_ID": "1999-025CMX", "EPOCH": "2025-12-10T21:42:54.518688", "MEAN_MOTION": 14.16418579, "ECCENTRICITY": 0.0082455, "INCLINATION": 98.8975, "RA_OF_ASC_NODE": 45.1311, "ARG_OF_PERICENTER": 55.1709, "MEAN_ANOMALY": 305.7186, "EPHEMERIS_TYPE": 0, "CLASSIFICATION_TYPE": "U", "NORAD_CAT_ID": 31946, "ELEMENT_SET_NO": 999, "REV_AT_EPOCH": 63982, "BSTAR": 0.001779, "MEAN_MOTION_DOT": 3.612e-05, "MEAN_MOTION_DDOT": 0}, "tle": {"line1": "1 31946U 99025CMX 25344.90479767  .00003612  00000+0  17790-2 0  9992", "line2": "2 31946  98.8975  45.1311 0082455  55.1709 305.7186 14.16418579639821"}}, "geometry": {"type": "Point", "coordinates": [-177.5999442845949, -77.17666987420273]}}, {"type": "Feature", "properties": {"norad_id": 31948, "name": "FENGYUN 1C DEB", "group": "fengyun-1c-debris", "lat": -56.58798805785051, "lon": -148.5208773141076, "alt_km": 819.0603125640819, "timestamp": "2025-12-11T15:53:39.827638+00:00", "meta": {"OBJECT_NAME": "FENGYUN 1C DEB", "OBJECT_ID": "1999-025CMZ", "EPOCH": "2025-12-08T09:44:13.179840", "MEAN_MOTION": 14.28248279, "ECCENTRICITY": 0.00237817, "INCLINATION": 99.3918, "RA_OF_ASC_NODE": 42.5089, "ARG_OF_PERICENTER": 35.7447, "MEAN_ANOMALY": 26.9919, "EPHEMERIS_TYPE": 0, "CLASSIFICATION_TYPE": "U", "NORAD_CAT_ID": 31948, "ELEMENT_SET_NO": 999, "REV_AT_EPOCH": 94966, "BSTAR": 0.0021945448, "MEAN_MOTION_DOT": 5.441e-05, "MEAN_MOTION_DDOT": 0}, "tle": {"line1": "1 31948U 99025CMZ 25342.40570810  .00005441  00000+0  21945-2 0  9997", "line2": "2 31948  99.3918  42.5089 0023781  35.7447  26.9919 14.28248279949662"}}, "geometry": {"type": "Point", "coordinates": [-148.5208773141076, -56.58798805785051]}}, {"type": "Feature", "properties": {"norad_id": 31949, "name": "FENGYUN 1C DEB", "group": "fengyun-1c-debris", "lat": 75.4088690222538, "lon": -173.53061723202254, "alt_km": 864.5694338300909, "timestamp": "2025-12-11T15:53:39.827653+00:00", "meta": {"OBJECT_NAME": "FENGYUN 1C DEB", "OBJECT_ID": "1999-025CNA", "EPOCH": "2025-11-23T05:03:27.897984", "MEAN_MOTION": 14.1687356, "ECCENTRICITY": 0.01252295, "INCLINATION": 98.5419, "RA_OF_ASC_NODE": 313.4803, "ARG_OF_PERICENTER": 269.0533, "MEAN_ANOMALY": 89.6292, "EPHEMERIS_TYPE": 0, "CLASSIFICATION_TYPE": "U", "NORAD_CAT_ID": 31949, "ELEMENT_SET_NO": 999, "REV_AT_EPOCH": 95228, "BSTAR": 0.00041514195, "MEAN_MOTION_DOT": 8.56e-06, "MEAN_MOTION_DDOT": 0}, "tle": {"line1": "1 31949U 99025CNA 25327.21073956  .00000856  00000+0  41514-3 0  9999", "line2": "2 31949  98.5419 313.4803 0125229 269.0533  89.6292 14.16873560952288"}}, "geometry": {"type": "Point", "coordinates": [-173.53061723202254, 75.4088690222538]}}, {"type": "Feature", "properties": {"norad_id": 31952, "name": "FENGYUN 1C DEB", "group": "fengyun-1c-debris", "lat": 59.19163666292879, "lon": -61.98463916900051, "alt_km": 789.1735570754754, "timestamp": "2025-12-11T15:53:39.827663+00:00", "meta": {"OBJECT_NAME": "FENGYUN 1C DEB", "OBJECT_ID": "1999-025CND", "EPOCH": "2025-12-11T07:04:47.348544", "MEAN_MOTION": 14.53487523, "ECCENTRICITY": 0.01139618, "INCLINATION": 98.9542, "RA_OF_ASC_NODE": 102.2915, "ARG_OF_PERICENTER": 296.9, "MEAN_ANOMALY": 62.0585, "EPHEMERIS_TYPE": 0, "CLASSIFICATION_TYPE": "U", "NORAD_CAT_ID": 31952, "ELEMENT_SET_NO": 999, "REV_AT_EPOCH": 97188, "BSTAR": 0.00082885768, "MEAN_MOTION_DOT": 3.709e-05, "MEAN_MOTION_DDOT": 0}, "tle": {"line1": "1 31952U 99025CND 25345.29499246  .00003709  00000+0  82886-3 0  9992", "line2": "2 31952  98.9542 102.2915 0113961 296.9000  62.0585 14.53487523971887"}}, "geometry": {"type": "Point", "coordinates": [-61.98463916900051, 59.19163666292879]}}]}